{
  "type": "FeatureCollection",
  "features": [
    {
      "type": "Feature",
      "properties": {
        "norad_id": 34845,
        "name": "COSMOS 2251 DEB",
        "group": "cosmos-2251-debris",
        "lat": -36.688640395962295,
        "lon": -1.8410720501402573,
        "alt_km": 750.4695214467947,
        "timestamp": "2025-12-03T08:58:46.398226+00:00",
        "meta_object_name": "COSMOS 2251 DEB",
        "meta_object_id": "1993-036ABP",
        "meta_epoch": "2025-11-28T06:44:43.474272",
        "meta_mean_motion": 14.45815545,
        "meta_eccentricity": 0.00217969,
        "meta_inclination": 74.024,
        "meta_ra_of_asc_node": 175.3373,
        "meta_arg_of_pericenter": 338.6212,
        "meta_mean_anomaly": 21.4033,
        "meta_ephemeris_type": 0,
        "meta_classification_type": "U",
        "meta_norad_cat_id": 34845,
        "meta_element_set_no": 999,
        "meta_rev_at_epoch": 87257,
        "meta_bstar": 0.00025523358,
        "meta_mean_motion_dot": 8.81e-06,
        "meta_mean_motion_ddot": 0,
        "tle_line1": "1 34845U 93036ABP 25332.28105873  .00000881  00000+0  25523-3 0  9990",
        "tle_line2": "2 34845  74.0240 175.3373 0021796 338.6212  21.4033 14.45815545872576"
      },
      "geometry": {
        "type": "Point",
        "coordinates": [
          -1.8410720501402573,
          -36.688640395962295
        ]
      }
    },
    {
      "type": "Feature",
      "properties": {
        "norad_id": 34846,
        "name": "COSMOS 2251 DEB",
        "group": "cosmos-2251-debris",
        "lat": 61.80715753180046,
        "lon": 66.99825937829584,
        "alt_km": 739.6857332238551,
        "timestamp": "2025-12-03T08:58:46.398247+00:00",
        "meta_object_name": "COSMOS 2251 DEB",
        "meta_object_id": "1993-036ABQ",
        "meta_epoch": "2025-12-03T00:09:43.315776",
        "meta_mean_motion": 14.47104829,
        "meta_eccentricity": 0.0025874,
        "meta_inclination": 74.0308,
        "meta_ra_of_asc_node": 279.9747,
        "meta_arg_of_pericenter": 347.664,
        "meta_mean_anomaly": 12.3882,
        "meta_ephemeris_type": 0,
        "meta_classification_type": "U",
        "meta_norad_cat_id": 34846,
        "meta_element_set_no": 999,
        "meta_rev_at_epoch": 87263,
        "meta_bstar": 0.0013419,
        "meta_mean_motion_dot": 4.888e-05,
        "meta_mean_motion_ddot": 0,
        "tle_line1": "1 34846U 93036ABQ 25337.00675134  .00004888  00000+0  13419-2 0  9999",
        "tle_line2": "2 34846  74.0308 279.9747 0025874 347.6640  12.3882 14.47104829872630"
      },
      "geometry": {
        "type": "Point",
        "coordinates": [
          66.99825937829584,
          61.80715753180046
        ]
      }
    },
    {
      "type": "Feature",
      "properties": {
        "norad_id": 34852,
        "name": "COSMOS 2251 DEB",
        "group": "cosmos-2251-debris",
        "lat": 17.244605893335603,
        "lon": 95.0978857716896,
        "alt_km": 776.6677545216098,
        "timestamp": "2025-12-03T08:58:46.398262+00:00",
        "meta_object_name": "COSMOS 2251 DEB",
        "meta_object_id": "1993-036ABW",
        "meta_epoch": "2025-12-02T05:29:46.536576",
        "meta_mean_motion": 14.36991388,
        "meta_eccentricity": 0.0015746,
        "meta_inclination": 74.0326,
        "meta_ra_of_asc_node": 282.3019,
        "meta_arg_of_pericenter": 28.2884,
        "meta_mean_anomaly": 331.9121,
        "meta_ephemeris_type": 0,
        "meta_classification_type": "U",
        "meta_norad_cat_id": 34852,
        "meta_element_set_no": 999,
        "meta_rev_at_epoch": 87383,
        "meta_bstar": 0.00017468,
        "meta_mean_motion_dot": 4.92e-06,
        "meta_mean_motion_ddot": 0,
        "tle_line1": "1 34852U 93036ABW 25336.22901084  .00000492  00000+0  17468-3 0  9991",
        "tle_line2": "2 34852  74.0326 282.3019 0015746  28.2884 331.9121 14.36991388873837"
      },
      "geometry": {
        "type": "Point",
        "coordinates": [
          95.0978857716896,
          17.244605893335603
        ]
      }
    },
    {
      "type": "Feature",
      "properties": {
        "norad_id": 34854,
        "name": "COSMOS 2251 DEB",
        "group": "cosmos-2251-debris",
        "lat": 7.309477159559134,
        "lon": -5.16561855216231,
        "alt_km": 663.7868164435413,
        "timestamp": "2025-12-03T08:58:46.398272+00:00",
        "meta_object_name": "COSMOS 2251 DEB",
        "meta_object_id": "1993-036ABY",
        "meta_epoch": "2025-12-01T22:02:46.134528",
        "meta_mean_motion": 14.76470003,
        "meta_eccentricity": 0.00662316,
        "meta_inclination": 74.0289,
        "meta_ra_of_asc_node": 179.791,
        "meta_arg_of_pericenter": 293.6475,
        "meta_mean_anomaly": 65.7756,
        "meta_ephemeris_type": 0,
        "meta_classification_type": "U",
        "meta_norad_cat_id": 34854,
        "meta_element_set_no": 999,
        "meta_rev_at_epoch": 71722,
        "meta_bstar": 0.00065989077,
        "meta_mean_motion_dot": 4.729e-05,
        "meta_mean_motion_ddot": 0,
        "tle_line1": "1 34854U 93036ABY 25335.91858952  .00004729  00000+0  65989-3 0  9991",
        "tle_line2": "2 34854  74.0289 179.7910 0066231 293.6475  65.7756 14.76470003717221"
      },
      "geometry": {
        "type": "Point",
        "coordinates": [
          -5.16561855216231,
          7.309477159559134
        ]
      }
    },
    {
      "type": "Feature",
      "properties": {
        "norad_id": 34856,
        "name": "COSMOS 2251 DEB",
        "group": "cosmos-2251-debris",
        "lat": -12.840293304679179,
        "lon": 100.34863117444904,
        "alt_km": 561.2215238727704,
        "timestamp": "2025-12-03T08:58:46.398283+00:00",
        "meta_object_name": "COSMOS 2251 DEB",
        "meta_object_id": "1993-036ACA",
        "meta_epoch": "2025-12-02T11:02:06.604224",
        "meta_mean_motion": 15.05140167,
        "meta_eccentricity": 0.00347835,
        "meta_inclination": 73.9965,
        "meta_ra_of_asc_node": 105.9765,
        "meta_arg_of_pericenter": 243.8774,
        "meta_mean_anomaly": 190.0896,
        "meta_ephemeris_type": 0,
        "meta_classification_type": "U",
        "meta_norad_cat_id": 34856,
        "meta_element_set_no": 999,
        "meta_rev_at_epoch": 88957,
        "meta_bstar": 0.0024540063,
        "meta_mean_motion_dot": 0.00035572,
        "meta_mean_motion_ddot": 0,
        "tle_line1": "1 34856U 93036ACA 25336.45979866  .00035572  00000+0  24540-2 0  9998",
        "tle_line2": "2 34856  73.9965 105.9765 0034783 243.8774 190.0896 15.05140167889570"
      },
      "geometry": {
        "type": "Point",
        "coordinates": [
          100.34863117444904,
          -12.840293304679179
        ]
      }
    },
    {
      "type": "Feature",
      "properties": {
        "norad_id": 34857,
        "name": "COSMOS 2251 DEB",
        "group": "cosmos-2251-debris",
        "lat": 44.004320622092564,
        "lon": -71.38309426398563,
        "alt_km": 714.3669673026943,
        "timestamp": "2025-12-03T08:58:46.398293+00:00",
        "meta_object_name": "COSMOS 2251 DEB",
        "meta_object_id": "1993-036ACB",
        "meta_epoch": "2025-12-03T04:15:06.733728",
        "meta_mean_motion": 14.58719635,
        "meta_eccentricity": 0.006625,
        "meta_inclination": 74.0143,
        "meta_ra_of_asc_node": 125.0659,
        "meta_arg_of_pericenter": 251.1934,
        "meta_mean_anomaly": 289.1001,
        "meta_ephemeris_type": 0,
        "meta_classification_type": "U",
        "meta_norad_cat_id": 34857,
        "meta_element_set_no": 999,
        "meta_rev_at_epoch": 87761,
        "meta_bstar": 0.0016306,
        "meta_mean_motion_dot": 7.823e-05,
        "meta_mean_motion_ddot": 0,
        "tle_line1": "1 34857U 93036ACB 25337.17716127  .00007823  00000+0  16306-2 0  9997",
        "tle_line2": "2 34857  74.0143 125.0659 0066250 251.1934 289.1001 14.58719635877619"
      },
      "geometry": {
        "type": "Point",
        "coordinates": [
          -71.38309426398563,
          44.004320622092564
        ]
      }
    },
    {
      "type": "Feature",
      "properties": {
        "norad_id": 34859,
        "name": "COSMOS 2251 DEB",
        "group": "cosmos-2251-debris",
        "lat": 41.14168976253723,
        "lon": 13.588915850585433,
        "alt_km": 525.5200632768338,
        "timestamp": "2025-12-03T08:58:46.398303+00:00",
        "meta_object_name": "COSMOS 2251 DEB",
        "meta_object_id": "1993-036ACD",
        "meta_epoch": "2025-12-03T02:43:55.274016",
        "meta_mean_motion": 15.12200295,
        "meta_eccentricity": 0.0004652,
        "meta_inclination": 74.035,
        "meta_ra_of_asc_node": 359.644,
        "meta_arg_of_pericenter": 317.511,
        "meta_mean_anomaly": 109.1572,
        "meta_ephemeris_type": 0,
        "meta_classification_type": "U",
        "meta_norad_cat_id": 34859,
        "meta_element_set_no": 999,
        "meta_rev_at_epoch": 88213,
        "meta_bstar": 0.0062158,
        "meta_mean_motion_dot": 0.00108986,
        "meta_mean_motion_ddot": 0,
        "tle_line1": "1 34859U 93036ACD 25337.11383419  .00108986  00000+0  62158-2 0  9995",
        "tle_line2": "2 34859  74.0350 359.6440 0004652 317.5110 109.1572 15.12200295882130"
      },
      "geometry": {
        "type": "Point",
        "coordinates": [
          13.588915850585433,
          41.14168976253723
        ]
      }
    }
  ]
}